NORAD_CAT_ID,OBJECT_NAME,OBJECT_TYPE,EPOCH,MEAN_MOTION,ECCENTRICITY,INCLINATION,RA_OF_ASC_NODE,ARG_OF_PERICENTER,MEAN_ANOMALY,BSTAR,MEAN_MOTION_DOT,MEAN_MOTION_DDOT,TLE_LINE0,TLE_LINE1,TLE_LINE2,SEMIMAJOR_AXIS,PERIOD,APOGEE,PERIGEE,DECAYED
54059.0,STARLINK-5173,PAYLOAD,2024-05-09 16:01:05,15.08850234,0.0001407,53.2164,107.5245,91.3496,268.7657,7.3811e-05,8.87e-06,0.0,0 STARLINK-5173,1 54059U 22136J   24130.66741995  .00000887  00000-0  73811-4 0  9991,2 54059  53.2164 107.5245 0001407  91.3496 268.7657 15.08850234 86320,6917.849,95.437,540.687,538.741,0.0
54059.0,STARLINK-5173,PAYLOAD,2024-05-10 04:44:10,15.08841246,0.0001433,53.218,105.1452,98.672,261.4435,4.862e-05,4.86e-06,0.0,0 STARLINK-5173,1 54059U 22136J   24131.19734746  .00000486  00000-0  48620-4 0  9991,2 54059  53.2180 105.1452 0001433  98.6720 261.4435 15.08841246 86407,6917.877,95.437,540.733,538.75,0.0
54059.0,STARLINK-5173,PAYLOAD,2024-05-10 15:51:52,15.08846827,0.0001613,53.2192,103.0623,93.7708,266.3468,8.2103e-05,1.019e-05,0.0,0 STARLINK-5173,1 54059U 22136J   24131.66102305  .00001019  00000-0  82103-4 0  9990,2 54059  53.2192 103.0623 0001613  93.7708 266.3468 15.08846827 85992,6917.86,95.437,540.84,538.609,0.0
54059.0,STARLINK-5173,PAYLOAD,2024-05-11 04:34:56,15.08864225,0.0001843,53.2183,100.6843,122.7071,237.4099,0.00023314,3.427e-05,0.0,0 STARLINK-5173,1 54059U 22136J   24132.19092707  .00003427  00000-0  23314-3 0  9996,2 54059  53.2183 100.6843 0001843 122.7071 237.4099 15.08864225 86554,6917.806,95.436,540.946,538.396,0.0
54059.0,STARLINK-5173,PAYLOAD,2024-05-11 22:04:13,15.0882152,0.0001866,53.2188,97.4118,84.5037,275.6168,-0.00011041,-2.044e-05,0.0,0 STARLINK-5173,1 54059U 22136J   24132.91960226 -.00002044  00000-0 -11041-3 0  9996,2 54059  53.2188  97.4118 0001866  84.5037 275.6168 15.08821520 86663,6917.937,95.439,541.093,538.511,0.0
54059.0,STARLINK-5173,PAYLOAD,2024-05-12 04:25:47,15.08807242,0.0001459,53.2178,96.2251,87.4846,272.6313,-0.0003441,-5.755e-05,0.0,0 STARLINK-5173,1 54059U 22136J   24133.18457228 -.00005755  00000-0 -34410-3 0  9996,2 54059  53.2178  96.2251 0001459  87.4846 272.6313 15.08807242 86704,6917.981,95.44,540.855,538.836,0.0
54059.0,STARLINK-5173,PAYLOAD,2024-05-12 13:58:06,15.08805926,0.0001445,53.218,94.4409,87.7129,272.4029,-0.00029028,-4.9e-05,0.0,0 STARLINK-5173,1 54059U 22136J   24133.58202048 -.00004900  00000-0 -29028-3 0  9998,2 54059  53.2180  94.4409 0001445  87.7129 272.4029 15.08805926 86286,6917.985,95.44,540.849,538.85,0.0
54059.0,STARLINK-5173,PAYLOAD,2024-05-13 04:16:34,15.08831978,0.0001808,53.218,91.7687,112.1753,247.9431,-4.2411e-05,-9.63e-06,0.0,0 STARLINK-5173,1 54059U 22136J   24134.17817266 -.00000963  00000-0 -42411-4 0  9995,2 54059  53.2180  91.7687 0001808 112.1753 247.9431 15.08831978 86856,6917.905,95.438,541.021,538.519,0.0
54059.0,STARLINK-5173,PAYLOAD,2024-05-13 07:27:20,15.0883573,0.000145,53.2166,91.1703,105.6273,254.4879,4.6456e-05,4.51e-06,0.0,0 STARLINK-5173,1 54059U 22136J   24134.31065465  .00000451  00000-0  46456-4 0  9990,2 54059  53.2166  91.1703 0001450 105.6273 254.4879 15.08835730 86398,6917.893,95.438,540.762,538.755,0.0
54059.0,STARLINK-5173,PAYLOAD,2024-05-14 04:07:21,15.08834939,0.0001361,53.2181,87.3058,97.8419,262.2728,0.00049853,7.654e-05,0.0,0 STARLINK-5173,1 54059U 22136J   24135.17177134  .00007654  00000-0  49853-3 0  9997,2 54059  53.2181  87.3058 0001361  97.8419 262.2728 15.08834939 87009,6917.896,95.438,540.702,538.819,0.0
54059.0,STARLINK-5173,PAYLOAD,2024-05-14 13:39:39,15.08860307,0.0001329,53.2171,85.5196,81.0154,279.0989,0.00061234,9.476e-05,0.0,0 STARLINK-5173,1 54059U 22136J   24135.56920517  .00009476  00000-0  61234-3 0  9992,2 54059  53.2171  85.5196 0001329  81.0154 279.0989 15.08860307 86581,6917.818,95.436,540.603,538.764,0.0
54059.0,STARLINK-5173,PAYLOAD,2024-05-15 05:33:29,15.08865314,0.0001389,53.217,82.5456,102.2939,257.8209,0.00020253,2.939e-05,0.0,0 STARLINK-5173,1 54059U 22136J   24136.23159530  .00002939  00000-0  20253-3 0  9999,2 54059  53.2170  82.5456 0001389 102.2939 257.8209 15.08865314 87166,6917.803,95.436,540.629,538.707,0.0
54059.0,STARLINK-5173,PAYLOAD,2024-05-16 05:24:16,15.08856635,0.0001343,53.2173,78.0844,73.6976,286.4164,-7.0792e-05,-1.415e-05,0.0,0 STARLINK-5173,1 54059U 22136J   24137.22518977 -.00001415  00000-0 -70792-4 0  9997,2 54059  53.2173  78.0844 0001343  73.6976 286.4164 15.08856635 87313,6917.83,95.437,540.624,538.765,0.0
54059.0,STARLINK-5173,PAYLOAD,2024-05-16 13:21:11,15.08860428,0.0001433,53.2187,76.5996,79.7515,280.3639,1.6798e-05,-2.1e-07,0.0,0 STARLINK-5173,1 54059U 22136J   24137.55638502 -.00000021  00000-0  16798-4 0  9997,2 54059  53.2187  76.5996 0001433  79.7515 280.3639 15.08860428 86881,6917.818,95.436,540.674,538.692,0.0
54059.0,STARLINK-5173,PAYLOAD,2024-05-16 19:42:45,15.08850321,0.0002981,53.2168,75.4098,82.7941,277.339,9.0336e-05,1.15e-05,0.0,0 STARLINK-5173,1 54059U 22136J   24137.82135429  .00001150  00000-0  90336-4 0  9990,2 54059  53.2168  75.4098 0002981  82.7941 277.3390 15.08850321 86923,6917.849,95.437,541.776,537.652,0.0
54059.0,STARLINK-5173,PAYLOAD,2024-05-17 02:04:17,15.08833727,0.0001362,53.2175,74.2186,95.8532,264.2616,-0.00025326,-4.316e-05,0.0,0 STARLINK-5173,1 54059U 22136J   24138.08631808 -.00004316  00000-0 -25326-3 0  9996,2 54059  53.2175  74.2186 0001362  95.8532 264.2616 15.08833727 87444,6917.9,95.438,540.707,538.822,0.0
54059.0,STARLINK-5173,PAYLOAD,2024-05-17 13:11:59,15.08844898,0.000148,53.2185,72.1346,110.6705,249.4446,5.0869e-05,5.22e-06,0.0,0 STARLINK-5173,1 54059U 22136J   24138.54999338  .00000522  00000-0  50869-4 0  9996,2 54059  53.2185  72.1346 0001480 110.6705 249.4446 15.08844898 87514,6917.865,95.437,540.754,538.707,0.0
54059.0,STARLINK-5173,PAYLOAD,2024-05-17 22:44:19,15.08825959,0.000135,53.2189,70.3551,79.0261,281.0883,-9.3613e-05,-1.777e-05,0.0,0 STARLINK-5173,1 54059U 22136J   24138.94744662 -.00001777  00000-0 -93613-4 0  9997,2 54059  53.2189  70.3551 0001350  79.0261 281.0883 15.08825959 87094,6917.923,95.438,540.722,538.854,0.0
54059.0,STARLINK-5173,PAYLOAD,2024-05-18 01:55:05,15.08833914,0.0001647,53.2175,69.7561,98.3767,261.7412,7.8183e-05,9.56e-06,0.0,0 STARLINK-5173,1 54059U 22136J   24139.07992252  .00000956  00000-0  78183-4 0  9993,2 54059  53.2175  69.7561 0001647  98.3767 261.7412 15.08833914 87594,6917.899,95.438,540.903,538.625,0.0
54059.0,STARLINK-5173,PAYLOAD,2024-05-18 22:35:06,15.08837011,0.0001395,53.2151,65.893,101.3608,258.7541,0.00022673,3.322e-05,0.0,0 STARLINK-5173,1 54059U 22136J   24139.94104630  .00003322  00000-0  22673-3 0  9996,2 54059  53.2151  65.8930 0001395 101.3608 258.7541 15.08837011 87247,6917.89,95.438,540.72,538.789,0.0
54059.0,STARLINK-5173,PAYLOAD,2024-05-19 01:45:52,15.08828955,0.0001375,53.217,65.2967,107.9092,252.205,5.5149e-05,5.9e-06,0.0,0 STARLINK-5173,1 54059U 22136J   24140.07352787  .00000590  00000-0  55149-4 0  9999,2 54059  53.2170  65.2967 0001375 107.9092 252.2050 15.08828955 87262,6917.914,95.438,540.73,538.828,0.0
54059.0,STARLINK-5173,PAYLOAD,2024-05-19 19:15:07,15.08837389,0.000126,53.2168,62.0246,109.225,250.8879,0.00021345,3.111e-05,0.0,0 STARLINK-5173,1 54059U 22136J   24140.80216783  .00003111  00000-0  21345-3 0  9997,2 54059  53.2168  62.0246 0001260 109.2250 250.8879 15.08837389 87857,6917.888,95.438,540.625,538.882,0.0
54059.0,STARLINK-5173,PAYLOAD,2024-05-20 00:01:16,15.08840205,0.0001489,53.2173,61.1333,108.1306,251.9848,0.0002198,3.212e-05,0.0,0 STARLINK-5173,1 54059U 22136J   24141.00088701  .00003212  00000-0  21980-3 0  9994,2 54059  53.2173  61.1333 0001489 108.1306 251.9848 15.08840205 87403,6917.88,95.438,540.775,538.715,0.0
54059.0,STARLINK-5173,PAYLOAD,2024-05-21 03:02:50,15.08834942,0.00015,53.2165,56.0777,117.2507,242.8638,3.4741e-05,2.65e-06,0.0,0 STARLINK-5173,1 54059U 22136J   24142.12696917  .00000265  00000-0  34741-4 0  9997,2 54059  53.2165  56.0777 0001500 117.2507 242.8638 15.08834942 88056,6917.896,95.438,540.799,538.723,0.0
54059.0,STARLINK-5173,PAYLOAD,2024-05-21 22:07:27,15.08845546,0.0001422,53.2167,52.5123,115.1072,245.0068,0.00016964,2.413e-05,0.0,0 STARLINK-5173,1 54059U 22136J   24142.92184543  .00002413  00000-0  16964-3 0  9995,2 54059  53.2167  52.5123 0001422 115.1072 245.0068 15.08845546 87694,6917.863,95.437,540.712,538.745,0.0
54059.0,STARLINK-5173,PAYLOAD,2024-05-22 04:28:59,15.08853652,0.0001337,53.2175,51.3227,108.5671,251.5466,0.00058033,8.963e-05,0.0,0 STARLINK-5173,1 54059U 22136J   24143.18680464  .00008963  00000-0  58033-3 0  9996,2 54059  53.2175  51.3227 0001337 108.5671 251.5466 15.08853652 88211,6917.839,95.437,540.629,538.779,0.0
54059.0,STARLINK-5173,PAYLOAD,2024-05-22 21:58:14,15.0884646,0.0001878,53.2171,48.0482,133.637,226.4778,0.00012649,1.726e-05,0.0,0 STARLINK-5173,1 54059U 22136J   24143.91544459  .00001726  00000-0  12649-3 0  9993,2 54059  53.2171  48.0482 0001878 133.6370 226.4778 15.08846460 87842,6917.861,95.437,541.025,538.426,0.0
54059.0,STARLINK-5173,PAYLOAD,2024-05-23 02:44:23,15.08846031,0.0001577,53.217,47.1571,129.1715,230.9417,-0.00010173,-1.907e-05,0.0,0 STARLINK-5173,1 54059U 22136J   24144.11416485 -.00001907  00000-0 -10173-3 0  9996,2 54059  53.2170  47.1571 0001577 129.1715 230.9417 15.08846031 88350,6917.862,95.437,540.818,538.636,0.0
54059.0,STARLINK-5173,PAYLOAD,2024-05-24 02:35:10,15.08849002,0.0001369,53.2175,42.6974,120.2886,239.8242,0.00028428,4.24e-05,0.0,0 STARLINK-5173,1 54059U 22136J   24145.10776417  .00004240  00000-0  28428-3 0  9993,2 54059  53.2175  42.6974 0001369 120.2886 239.8242 15.08849002 88021,6917.853,95.437,540.665,538.771,0.0
54059.0,STARLINK-5173,PAYLOAD,2024-05-24 21:39:48,15.08840722,0.0001386,53.2181,39.1266,113.429,246.6848,0.00010239,1.342e-05,0.0,0 STARLINK-5173,1 54059U 22136J   24145.90264723  .00001342  00000-0  10239-3 0  9994,2 54059  53.2181  39.1266 0001386 113.4290 246.6848 15.08840722 88629,6917.878,95.438,540.702,538.784,0.0
